{
"type": "FeatureCollection",
"features": [
{ "type": "Feature", "properties": { "name": "DE0 0" }, "geometry": { "type": "Polygon", "coordinates": [ [ [ 7.648555716973667, 47.594774446858729 ], [ 7.586028488000125, 47.584618544000151 ], [ 7.590316609000098, 47.607947896000056 ], [ 7.514662312000041, 47.685798442000092 ], [ 7.511871785000096, 47.707321676000063 ], [ 7.537813355000139, 47.73181630400002 ], [ 7.525927775000099, 47.78315684000016 ], [ 7.542877645000118, 47.829433086000122 ], [ 7.561997925000099, 47.839225769 ], [ 7.559000691000108, 47.882711488000112 ], [ 7.584942261000037, 47.94040822400008 ], [ 7.621115763000063, 47.971439922000016 ], [ 7.618945353000072, 48.00265248700002 ], [ 7.575743856000145, 48.053708802000173 ], [ 7.578947795000119, 48.114480286000074 ], [ 7.613364298000079, 48.179205018000076 ], [ 7.687158243000113, 48.252921448 ], [ 7.702454467000081, 48.311186625000047 ], [ 7.730122016548188, 48.32848624935329 ], [ 7.75072025500009, 48.341365662000115 ], [ 7.738317912000127, 48.406607158000057 ], [ 7.776455119000076, 48.498177796000121 ], [ 7.813455444000027, 48.519468486000122 ], [ 7.801673217000115, 48.547580465000138 ], [ 7.810251506000071, 48.615018209000183 ], [ 7.852419475000119, 48.658684794000138 ], [ 7.859424464610483, 48.662797597761745 ], [ 7.959182983000119, 48.721368307 ], [ 7.970138387000105, 48.757283427000132 ], [ 8.017267293000117, 48.761830954000075 ], [ 8.038764689000061, 48.790769756000046 ], [ 8.079076683100975, 48.803857016415805 ], [ 8.090337769000143, 48.807512920000178 ], [ 8.174809843460716, 48.923542936327401 ], [ 8.200305216000061, 48.95856313100002 ], [ 8.090441121000083, 48.979182028000039 ], [ 7.931897827000114, 49.034837546000134 ], [ 7.922685185266873, 49.035610782030403 ], [ 7.892001981077327, 49.038186086670521 ], [ 7.773664591000113, 49.048118388000049 ], [ 7.634965047000037, 49.03778310100013 ], [ 7.608610066000068, 49.061967672000108 ], [ 7.601151735652675, 49.063812488752681 ], [ 7.52086348500012, 49.083671774000109 ], [ 7.471047404000103, 49.128320212000133 ], [ 7.476111694000082, 49.151522929000137 ], [ 7.410482625000043, 49.168937887000183 ], [ 7.350951376000069, 49.15917104200004 ], [ 7.334001506000078, 49.134159648000136 ], [ 7.297104533000038, 49.128113505 ], [ 7.274366902000054, 49.105014140000108 ], [ 7.154994344000045, 49.114419251000172 ], [ 7.117756102491769, 49.128095468677927 ], [ 7.079856812000116, 49.142014465000059 ], [ 7.073242228000112, 49.120310364 ], [ 7.042546427000076, 49.107597962000014 ], [ 7.020532267000078, 49.118966777000097 ], [ 7.009473510000078, 49.181701965000158 ], [ 6.914388876000146, 49.206661683000121 ], [ 6.870724929865951, 49.208167336128973 ], [ 6.833463583000054, 49.20945221 ], [ 6.839044637000086, 49.16278839200011 ], [ 6.821784709000099, 49.147750550000026 ], [ 6.725563192000038, 49.155553691000065 ], [ 6.700965210000078, 49.172865296000154 ], [ 6.702515503000086, 49.21363800100012 ], [ 6.680604696000046, 49.207488505000143 ], [ 6.639676961000106, 49.271153870000049 ], [ 6.607003908180984, 49.292834498892297 ], [ 6.787465863874211, 49.360984615603535 ], [ 6.68954266539642, 49.418026500430081 ], [ 6.631912785069277, 49.633293006052746 ], [ 6.931060150301494, 49.66742848453945 ], [ 7.051429585312174, 49.734523916731646 ], [ 7.063692656328644, 49.733452469913999 ], [ 7.314837750830296, 49.828337987721298 ], [ 7.379798726499279, 49.985303072846122 ], [ 7.385114144371488, 49.988438089027198 ], [ 7.598148465559452, 50.045229834658002 ], [ 7.864586657277611, 50.237146485660617 ], [ 7.824377516206294, 50.518572582801909 ], [ 8.095818835161696, 50.642311082265536 ], [ 8.209233125620894, 50.654810734466125 ], [ 8.212578321797572, 50.661262188551284 ], [ 8.219521608723142, 50.667412331958843 ], [ 8.428483681273116, 50.975982828632525 ], [ 8.694075767374034, 51.024499676185819 ], [ 8.716186018229982, 50.981798800456595 ], [ 9.061784340657747, 50.724603475109191 ], [ 9.18230545055728, 50.546162609674944 ], [ 9.299265488592035, 50.645933694021892 ], [ 9.463364232321791, 50.996280954712972 ], [ 9.87714898058282, 51.111583482513282 ], [ 9.987920422147228, 51.07330220363491 ], [ 10.021498460435099, 50.762166608215047 ], [ 10.125213422732589, 50.575055167407761 ], [ 10.491281025483664, 50.411551847494884 ], [ 10.43092799360949, 50.149172583862963 ], [ 10.435733170200637, 49.671220993730046 ], [ 10.211737655923455, 49.373281830430209 ], [ 10.114597273211134, 49.372128864480175 ], [ 9.754263661282288, 48.951012255993653 ], [ 9.876320330124637, 48.579132033459764 ], [ 9.869760791496811, 48.548337492523729 ], [ 9.861122057749137, 48.542156864094046 ], [ 9.614766075242636, 48.151941707317995 ], [ 9.687808450706244, 47.993347400133224 ], [ 9.84429088444754, 47.923743303439934 ], [ 9.575418904967306, 47.528791278890601 ], [ 9.549886922000042, 47.533533834000039 ], [ 9.273211304000142, 47.650090027000104 ], [ 9.266159016184284, 47.650649049854231 ], [ 9.196936890000131, 47.656136170000039 ], [ 9.183397664000069, 47.670424704000041 ], [ 9.016586141000118, 47.678899639000051 ], [ 8.945376017000086, 47.654301656000044 ], [ 8.894470384539964, 47.655768499006861 ], [ 8.881710652000095, 47.656136170000039 ], [ 8.837785685000142, 47.680837504000138 ], [ 8.856079142000112, 47.690681864000126 ], [ 8.797581420000114, 47.720034079000115 ], [ 8.770709676000109, 47.720860901000137 ], [ 8.769882853000098, 47.695074361000039 ], [ 8.717069540000068, 47.694557597000184 ], [ 8.700429728000131, 47.723496399000155 ], [ 8.71314213000008, 47.757421977000078 ], [ 8.681929565000104, 47.758739726000115 ], [ 8.644102417000113, 47.791011658000102 ], [ 8.617437378000091, 47.757318624000121 ], [ 8.601624390000097, 47.794603170000173 ], [ 8.558216187000085, 47.801166077000133 ], [ 8.542299846000077, 47.795016581000183 ], [ 8.55160160300008, 47.779255270000093 ], [ 8.487087656073372, 47.767997548673748 ], [ 8.463648315000086, 47.763907370000041 ], [ 8.437913452000089, 47.723186341000158 ], [ 8.392128133000142, 47.699518535000138 ], [ 8.391301310000131, 47.665463765000183 ], [ 8.458273966000121, 47.639883932000131 ], [ 8.514925295939344, 47.651757284138561 ], [ 8.568241414000113, 47.662931621 ], [ 8.607308797000115, 47.65629119900008 ], [ 8.601624390000097, 47.632597555000146 ], [ 8.580333699000107, 47.639005432 ], [ 8.574132527000103, 47.592444967000134 ], [ 8.522352742000038, 47.621900534000062 ], [ 8.522091763624301, 47.621832617266904 ], [ 8.461787964000081, 47.606139221000078 ], [ 8.448868856000075, 47.58428009100011 ], [ 8.354094279000037, 47.58102447500012 ], [ 8.306345255000053, 47.592186585000078 ], [ 8.288568562000108, 47.615802715000186 ], [ 8.232964721000116, 47.621952210000146 ], [ 8.17901452600006, 47.615802715000186 ], [ 8.087237182000109, 47.567381897000033 ], [ 8.060114243994189, 47.563266692642074 ], [ 8.042278686000117, 47.560560608000074 ], [ 7.91215743000015, 47.560560608000074 ], [ 7.898204794000065, 47.587845764000079 ], [ 7.819656616000117, 47.595338847000122 ], [ 7.766739949000055, 47.555961406000122 ], [ 7.661423380000116, 47.546246236000101 ], [ 7.618444475763124, 47.561632684002966 ], [ 7.609746948000094, 47.564746399000015 ], [ 7.621211711744572, 47.564678426223352 ], [ 7.635895223000091, 47.564591370000173 ], [ 7.65966638200004, 47.596579082000162 ], [ 7.648555716973667, 47.594774446858729 ] ] ] } },
{ "type": "Feature", "properties": { "name": "DE0 1" }, "geometry": { "type": "Polygon", "coordinates": [ [ [ 6.577716919000068, 49.355799866000055 ], [ 6.518805786000058, 49.402153626000043 ], [ 6.511674438000114, 49.424736226000093 ], [ 6.402740519000133, 49.465457255000061 ], [ 6.345307071000093, 49.455348652000069 ], [ 6.350754028000097, 49.566588034000048 ], [ 6.417933390000144, 49.63914174500006 ], [ 6.402740519000133, 49.655781555000075 ], [ 6.430671307477214, 49.672039775136867 ], [ 6.499685506000077, 49.712212219 ], [ 6.485526163000117, 49.733761292000153 ], [ 6.488478352135875, 49.744478632341036 ], [ 6.502579387000139, 49.795669658000079 ], [ 6.397056111000097, 49.808588766000085 ], [ 6.376085234024916, 49.819178020511409 ], [ 6.33442427500006, 49.840214742000072 ], [ 6.30259159400012, 49.834943747000139 ], [ 6.286778605000109, 49.86104034500012 ], [ 6.222699829000106, 49.887136943000129 ], [ 6.172677043000107, 49.956228333000084 ], [ 6.161928345000092, 49.942482402000067 ], [ 6.096402629000096, 50.048625794000102 ], [ 6.129475545000076, 50.134046937 ], [ 6.121310668000149, 50.161590475000096 ], [ 6.165132284000066, 50.181899312000112 ], [ 6.146838827000096, 50.214042054000132 ], [ 6.271792439000137, 50.267423808000061 ], [ 6.282845113072409, 50.295862256005229 ], [ 6.285951782000097, 50.303855692000141 ], [ 6.374525187000074, 50.31548289100003 ], [ 6.337731567000077, 50.368089498000117 ], [ 6.35116744000004, 50.433563538 ], [ 6.32326216600012, 50.466016337000113 ], [ 6.336904744000037, 50.48100250200018 ], [ 6.255566040000133, 50.494593404000071 ], [ 6.237082581712066, 50.491433838503625 ], [ 6.207196900000099, 50.486325175000118 ], [ 6.182598917000121, 50.506582337000125 ], [ 6.190557088000077, 50.515212301000176 ], [ 6.179227278168161, 50.516784238027959 ], [ 6.170816691000113, 50.517951152000123 ], [ 6.177327922000075, 50.530198466000158 ], [ 6.160688110000081, 50.543582663000095 ], [ 6.176929231465753, 50.553376128539654 ], [ 6.232931763000096, 50.587145894000045 ], [ 6.249054809000086, 50.614431051000125 ], [ 6.172668806672539, 50.621215044695361 ], [ 6.159447876000115, 50.622389222000024 ], [ 6.147769002000047, 50.636755270000108 ], [ 6.161101521000091, 50.642181296000089 ], [ 6.081003052000113, 50.713494772000061 ], [ 6.011549926000043, 50.708533835000097 ], [ 6.010826457000064, 50.737059225000152 ], [ 5.972999308000084, 50.781811015000116 ], [ 5.968761841000116, 50.794626770000022 ], [ 5.998320760000041, 50.800724589000154 ], [ 6.009276164000113, 50.840463765000052 ], [ 6.056715129000111, 50.852659404000164 ], [ 6.063743124000041, 50.907539774999989 ], [ 5.999871053000078, 50.929398906000117 ], [ 6.00369510900012, 50.97373728400008 ], [ 5.874607381000118, 50.965365702999989 ], [ 5.858174275000067, 51.019341736000158 ], [ 5.852489868000106, 51.042751160000122 ], [ 5.88049849500004, 51.052052918000143 ], [ 5.937962687000066, 51.030943095000012 ], [ 5.982921183000144, 51.074687195000095 ], [ 6.022805890752631, 51.093513278749505 ], [ 6.127656131987789, 51.143003911472412 ], [ 6.147252238000107, 51.152253520000059 ], [ 6.12627160700012, 51.164578349000024 ], [ 6.157070760000096, 51.179254456000095 ], [ 6.084310344000102, 51.162692159000116 ], [ 6.070536677311148, 51.167515976192377 ], [ 6.060849243000121, 51.170908712000042 ], [ 6.060766135401813, 51.171708876089383 ], [ 6.056611776000096, 51.211707255000121 ], [ 6.147769002000047, 51.318160706000143 ], [ 6.193554321000107, 51.344515686000094 ], [ 6.207817016000149, 51.387665508000126 ], [ 6.202112609436064, 51.3919340452791 ], [ 6.192727499000085, 51.398956808000023 ], [ 6.205336548000105, 51.458436382000158 ], [ 6.19334761500005, 51.509337667000082 ], [ 6.086480754000092, 51.595533956000011 ], [ 6.099193156000069, 51.644471538000019 ], [ 6.008552694000116, 51.681187643000086 ], [ 6.02198856600009, 51.709506327999989 ], [ 6.012066691000086, 51.715862528000017 ], [ 5.939306274000103, 51.731882223000142 ], [ 5.964110962000063, 51.776556499 ], [ 5.928040812000063, 51.806735535000186 ], [ 6.084000284000126, 51.853657735000141 ], [ 6.156140584000127, 51.842056376000087 ], [ 6.09299198400015, 51.885309550000144 ], [ 6.1269950760001, 51.89673004100014 ], [ 6.225180298000083, 51.862546082000065 ], [ 6.264661092000011, 51.866189271000152 ], [ 6.287398722000091, 51.846164653000116 ], [ 6.341969034000016, 51.836682028000141 ], [ 6.344966268000121, 51.8211015830001 ], [ 6.382483358000115, 51.827586975000159 ], [ 6.378452596000045, 51.860117289000087 ], [ 6.433602503988527, 51.852438829022546 ], [ 6.462891887000069, 51.848360901000106 ], [ 6.528624308000133, 51.876421204000124 ], [ 6.743753296000079, 51.908331401000012 ], [ 6.810725952000098, 51.960576274000104 ], [ 6.809423290168591, 51.97651217037717 ], [ 6.809175659000061, 51.97954152500013 ], [ 6.803156342913867, 51.982021362644986 ], [ 6.675023641000109, 52.034809469000081 ], [ 6.679881225000116, 52.060466818000137 ], [ 6.707197189208252, 52.066377813422939 ], [ 6.711403849000106, 52.067288107000181 ], [ 6.749851115000126, 52.102867330000052 ], [ 6.830673055000091, 52.11289255800007 ], [ 6.884829956000118, 52.160331523000153 ], [ 7.026320027000054, 52.230637309000159 ], [ 7.012470744000098, 52.284949239000028 ], [ 7.048230835000112, 52.365073547000108 ], [ 6.973300008000137, 52.451373190000041 ], [ 6.9002295330001, 52.431917013000074 ], [ 6.714814494000109, 52.461553447000099 ], [ 6.695074097000145, 52.475609437000131 ], [ 6.671716349000121, 52.54167775500018 ], [ 6.743753296000079, 52.55971283000018 ], [ 6.73854283729246, 52.5627714368676 ], [ 6.70396244300008, 52.583070577000129 ], [ 6.7017920320001, 52.619114889000045 ], [ 6.737035360000078, 52.634695333000153 ], [ 6.865399617000037, 52.641955872000139 ], [ 7.018465210000045, 52.625987854000087 ], [ 7.036655314000086, 52.647381897000017 ], [ 7.046559931026509, 52.716471653428222 ], [ 7.058525702794706, 52.799939015642721 ], [ 7.061976766000043, 52.824011942000098 ], [ 7.161918986000103, 52.9326358040001 ], [ 7.19282149300011, 52.998006490000151 ], [ 7.174696744749461, 53.119294252795697 ], [ 7.371800011928926, 52.898934366275085 ], [ 7.549499414817473, 52.798071161968402 ], [ 7.672380873723257, 52.750520299241529 ], [ 7.687477598795863, 52.693257202678851 ], [ 7.758728366515447, 52.654410984020871 ], [ 8.039635349616077, 52.592499864077539 ], [ 8.065100293476707, 52.556501476867822 ], [ 8.071388468379123, 52.520289604705958 ], [ 8.334232820316815, 52.114580309107716 ], [ 8.39565883195875, 52.134438136151743 ], [ 8.595753259726301, 51.852714890995728 ], [ 8.445631494580457, 51.64555046926791 ], [ 8.424873613840965, 51.546477 ], [ 8.374911903101719, 51.492806373859104 ], [ 8.697990808792687, 51.058548999854793 ], [ 8.694075767374034, 51.024499676185819 ], [ 8.428483681273116, 50.975982828632525 ], [ 8.219521608723142, 50.667412331958843 ], [ 8.212578321797572, 50.661262188551284 ], [ 8.209233125620894, 50.654810734466125 ], [ 8.095818835161696, 50.642311082265536 ], [ 7.824377516206294, 50.518572582801909 ], [ 7.864586657277611, 50.237146485660617 ], [ 7.598148465559452, 50.045229834658002 ], [ 7.385114144371488, 49.988438089027198 ], [ 7.379798726499279, 49.985303072846122 ], [ 7.314837750830296, 49.828337987721298 ], [ 7.063692656328644, 49.733452469913999 ], [ 7.051429585312174, 49.734523916731646 ], [ 6.931060150301494, 49.66742848453945 ], [ 6.631912785069277, 49.633293006052746 ], [ 6.68954266539642, 49.418026500430081 ], [ 6.787465863874211, 49.360984615603535 ], [ 6.607003908180984, 49.292834498892297 ], [ 6.556426228000078, 49.326395976000171 ], [ 6.556259128202801, 49.330594363105419 ], [ 6.555599406000056, 49.347169902000118 ], [ 6.577716919000068, 49.355799866000055 ] ] ] } },
{ "type": "Feature", "properties": { "name": "DE0 2" }, "geometry": { "type": "MultiPolygon", "coordinates": [ [ [ [ 12.398188517000051, 50.315172831000112 ], [ 12.336486857000068, 50.258587138000152 ], [ 12.308684936000105, 50.217090963 ], [ 12.314369344000056, 50.167326559000159 ], [ 12.300416707000068, 50.160815328000083 ], [ 12.273234904000077, 50.172339173000026 ], [ 12.254321330000039, 50.217401021000157 ], [ 12.229930054000107, 50.234815979000089 ], [ 12.239645223000139, 50.256571758000106 ], [ 12.178046916000113, 50.268767395000012 ], [ 12.168538452000121, 50.302977193000018 ], [ 12.149314819000011, 50.311710511000072 ], [ 12.128622596881682, 50.31268959186059 ], [ 12.051231950058829, 50.446369554807717 ], [ 12.004934616942863, 50.47418869329838 ], [ 11.874031509503025, 50.725362724880888 ], [ 11.671321103344274, 50.731956132114973 ], [ 11.557575737197777, 50.835740289645429 ], [ 11.448549765880813, 50.809367923664418 ], [ 10.949009218261329, 50.97585325863389 ], [ 10.9150322848727, 50.961915052443253 ], [ 10.424213841079419, 51.539072941756523 ], [ 10.423826610650138, 51.598750587927512 ], [ 10.758712797838243, 51.833212190160516 ], [ 11.145478439483753, 51.84413109530314 ], [ 11.262490779400409, 51.933463313094187 ], [ 11.312004739240486, 52.041680578535065 ], [ 11.324658934276686, 52.17118403123493 ], [ 11.276726688978421, 52.616011783020141 ], [ 11.235442184590223, 52.675526076545161 ], [ 11.110332048033364, 52.969923842031974 ], [ 11.086806323769483, 52.982079371740518 ], [ 11.065871599398889, 53.022263120459627 ], [ 10.987760958613983, 53.289757958380861 ], [ 10.973017333772107, 53.405165380966494 ], [ 11.035820494261753, 53.549379011145128 ], [ 11.295096903535766, 53.941565661650401 ], [ 11.334157748000109, 53.961371161 ], [ 11.457692905000044, 53.906154690000065 ], [ 11.472422722000118, 53.968817450000174 ], [ 11.49789472700013, 53.981838283000158 ], [ 11.49170983200014, 54.002346096000011 ], [ 11.517183297924738, 54.017569524450806 ], [ 11.525889519000145, 54.02277252800009 ], [ 11.51905358200014, 54.036444403000033 ], [ 11.573496941000116, 54.039048570000105 ], [ 11.624522332000112, 54.083644924000012 ], [ 11.624627229144302, 54.087392082458621 ], [ 11.625254754000139, 54.109808661000145 ], [ 11.689707879000139, 54.155218817000119 ], [ 11.81226647200009, 54.149807033000101 ], [ 12.088145379000139, 54.194077867000047 ], [ 12.09164472700013, 54.113999742 ], [ 12.115000847000118, 54.097886460000026 ], [ 12.095062696000127, 54.145697333000143 ], [ 12.142832879000082, 54.180487372000087 ], [ 12.10132897200009, 54.173651434000149 ], [ 12.108897332000112, 54.183010158000016 ], [ 12.186859571000099, 54.243353583000143 ], [ 12.287689127840224, 54.282697191331721 ], [ 12.342133009000065, 54.303941148000106 ], [ 12.501963738000143, 54.473578192000062 ], [ 12.533864780000073, 54.488267320000077 ], [ 12.548350457000112, 54.462062893000123 ], [ 12.59148196700005, 54.451727606000119 ], [ 12.600056779038269, 54.451640429162957 ], [ 12.879649285000141, 54.448797919000086 ], [ 12.921153191000144, 54.433498440000122 ], [ 12.870778842000107, 54.416815497000087 ], [ 12.694590691000087, 54.433661200000088 ], [ 12.624196811000076, 54.422919012000179 ], [ 12.608443203289736, 54.416792609145865 ], [ 12.581716342000107, 54.406398830000015 ], [ 12.594737175000091, 54.385891018000152 ], [ 12.554047071000099, 54.390814520000035 ], [ 12.527028842000078, 54.37225983300003 ], [ 12.490977410000113, 54.390082098000093 ], [ 12.438487175000148, 54.387518622000172 ], [ 12.418467644000089, 54.36066315300009 ], [ 12.424001498000109, 54.344916083000143 ], [ 12.39673912900011, 54.351752020000148 ], [ 12.391612175000091, 54.321112372000144 ], [ 12.362559441000116, 54.310207424000069 ], [ 12.380137566000144, 54.277085679000137 ], [ 12.368825717000078, 54.269191799000154 ], [ 12.412445509000094, 54.251410223000065 ], [ 12.458181186000104, 54.255560614000117 ], [ 12.410329623000081, 54.269191799000154 ], [ 12.47242272200009, 54.310207424000069 ], [ 12.478688998000052, 54.331854559000149 ], [ 12.560557488000114, 54.358587958000086 ], [ 12.54078209700009, 54.37225983300003 ], [ 12.592946811000104, 54.369330145000092 ], [ 12.618224267283237, 54.376149690614582 ], [ 12.677256707000083, 54.392075914000131 ], [ 12.680837436000076, 54.410874742000075 ], [ 12.717539910000085, 54.413804429 ], [ 12.692393425000091, 54.396185614000061 ], [ 12.684092644000117, 54.37225983300003 ], [ 12.704600457000083, 54.399603583000086 ], [ 12.735036655000044, 54.37815989800005 ], [ 12.787119988000086, 54.392075914000131 ], [ 12.818044467000107, 54.357977606000119 ], [ 12.854665561000047, 54.357855536000145 ], [ 12.92937259200005, 54.414374091000141 ], [ 13.034190300000091, 54.433661200000088 ], [ 13.021494988000114, 54.426459052000055 ], [ 13.028575066000087, 54.401841539000074 ], [ 13.095550977000102, 54.37225983300003 ], [ 13.076670769000145, 54.352525132000082 ], [ 13.114919467000107, 54.280015367000047 ], [ 13.170664910000113, 54.27659739800005 ], [ 13.143402540000125, 54.26300690300009 ], [ 13.288828972000147, 54.234279690000122 ], [ 13.33504077753922, 54.192889441355376 ], [ 13.348887566000144, 54.180487372000087 ], [ 13.328892642513512, 54.170489910256833 ], [ 13.321543816000087, 54.166815497000144 ], [ 13.328032671032506, 54.167356771857612 ], [ 13.403493686000047, 54.173651434000149 ], [ 13.382985873000081, 54.153143622000115 ], [ 13.417735222000118, 54.153143622000115 ], [ 13.465098504000082, 54.098456122000172 ], [ 13.507090691000144, 54.091050523 ], [ 13.479258660000085, 54.125189520000092 ], [ 13.602712436000019, 54.139471747000172 ], [ 13.711924675000148, 54.173651434000149 ], [ 13.69825280000012, 54.153143622000115 ], [ 13.808116082000083, 54.104681708000115 ], [ 13.773203972000147, 54.046332098000121 ], [ 13.746104363000143, 54.036444403000033 ], [ 13.838633660000113, 53.986314195000134 ], [ 13.84864342500012, 53.955552476000051 ], [ 13.90756269600007, 53.933539130000142 ], [ 13.818532748000081, 53.877997137000094 ], [ 13.817067905000101, 53.852932033000101 ], [ 13.854458532842667, 53.836363069394118 ], [ 14.037445509000122, 53.755275783000101 ], [ 14.18653405000012, 53.739813544000171 ], [ 14.23414147200009, 53.761786200000088 ], [ 14.264496290000068, 53.751613674000126 ], [ 14.259532097000118, 53.727972723 ], [ 14.21273847700013, 53.708075262000122 ], [ 14.263900720266179, 53.699976159552662 ], [ 14.260968872000149, 53.656209209000011 ], [ 14.297039022000149, 53.597763164000028 ], [ 14.304170370000094, 53.508517965000081 ], [ 14.359877564000044, 53.444077454000151 ], [ 14.365003892527909, 53.424557737482452 ], [ 14.403285767000028, 53.278790385000079 ], [ 14.441629680000062, 53.251841126000144 ], [ 14.380651489000087, 53.189855245 ], [ 14.389539835000107, 53.13166758300018 ], [ 14.343341105000064, 53.04862355500002 ], [ 14.144490193000109, 52.959920960000133 ], [ 14.164954061000088, 52.895661317000148 ], [ 14.150484660000131, 52.864629619000041 ], [ 14.123922973000049, 52.850651144000139 ], [ 14.382201782000095, 52.738151551000058 ], [ 14.431914510000098, 52.686087546000024 ], [ 14.522062847445399, 52.639864642053979 ], [ 14.644821411000066, 52.57692108200014 ], [ 14.609061320000137, 52.517803243000102 ], [ 14.632315715000061, 52.496745098000176 ], [ 14.591594686000093, 52.449797059000119 ], [ 14.539814901000113, 52.421865947000029 ], [ 14.54539595600005, 52.382152608000141 ], [ 14.590147746000099, 52.309418030000174 ], [ 14.584153280000066, 52.291227926000133 ], [ 14.712414184000124, 52.235908305000109 ], [ 14.69257043500005, 52.199579773000139 ], [ 14.707039836000149, 52.179451803000163 ], [ 14.686369263000131, 52.121031596000094 ], [ 14.76140344300012, 52.076667379000057 ], [ 14.699081665000108, 51.992512309000077 ], [ 14.687092733000043, 51.911897074000152 ], [ 14.637110007688593, 51.873800830564925 ], [ 14.595935507000092, 51.84241811200009 ], [ 14.585806925000043, 51.803893332000129 ], [ 14.634176066000066, 51.769011739000135 ], [ 14.648438761000136, 51.717206116000071 ], [ 14.665743225488873, 51.705084476862183 ], [ 14.732464640000074, 51.658346659000173 ], [ 14.743936808000086, 51.606644390000113 ], [ 14.71272424300011, 51.56742197700008 ], [ 14.710037068000076, 51.530240784000071 ], [ 14.761295453507907, 51.514611458857203 ], [ 14.805564425310232, 51.50111329368513 ], [ 14.910955038000083, 51.468978373000127 ], [ 14.95539676900006, 51.435414530000017 ], [ 14.960977824000054, 51.335291443000088 ], [ 15.019475545000148, 51.271677755000113 ], [ 15.022059367000054, 51.236770325000052 ], [ 14.991363566000103, 51.188969625000041 ], [ 14.955293417000121, 51.064041850000095 ], [ 14.910644979000097, 50.992650859000108 ], [ 14.860208781000097, 50.916841533000095 ], [ 14.810496053000065, 50.877050680000096 ], [ 14.785071248000065, 50.820051575000107 ], [ 14.737528931000043, 50.81069814100006 ], [ 14.61319543500008, 50.845579732000047 ], [ 14.629215128000112, 50.920717266000153 ], [ 14.550356893000099, 50.912087301000113 ], [ 14.574334758000106, 50.975494283000145 ], [ 14.502917928000102, 51.008515524000117 ], [ 14.491908028591823, 51.023715757609139 ], [ 14.482144002000069, 51.0371959430001 ], [ 14.476413904798008, 51.032182107698212 ], [ 14.462093547000109, 51.01965179400004 ], [ 14.39780806400006, 51.013114726000154 ], [ 14.356570272000056, 51.032338359000093 ], [ 14.287530558000071, 51.036834208000116 ], [ 14.238334595000111, 50.982470602000134 ], [ 14.303756958000093, 50.96970652300017 ], [ 14.292801554000107, 50.953480124000166 ], [ 14.381891724000127, 50.920872294 ], [ 14.375897257000105, 50.895964254000134 ], [ 14.346545044000038, 50.880202942000054 ], [ 14.23213342300005, 50.879376119000128 ], [ 14.190792277000099, 50.847905172000154 ], [ 14.127348421437315, 50.829456809564107 ], [ 14.034936157000061, 50.802584941000148 ], [ 13.959591919000076, 50.802068177000123 ], [ 13.892515910000071, 50.780415752000138 ], [ 13.882180624000057, 50.742743632 ], [ 13.834534953000087, 50.72367502900012 ], [ 13.580836162540999, 50.708205015227492 ], [ 13.556567423000075, 50.706725159000101 ], [ 13.515639689000068, 50.691015524000065 ], [ 13.523287801000038, 50.662180075000109 ], [ 13.47069265224529, 50.616871771073484 ], [ 13.457446882933354, 50.605461149448935 ], [ 13.447943563000052, 50.597274476000067 ], [ 13.407015828000056, 50.601305237000176 ], [ 13.368775268000149, 50.628332011000012 ], [ 13.321853068000109, 50.602390443000061 ], [ 13.305626668000087, 50.575777080000037 ], [ 13.232349487000079, 50.582029928000125 ], [ 13.199069865000126, 50.525340882000037 ], [ 13.160105835000138, 50.497022197000135 ], [ 13.00962406400015, 50.492681376000164 ], [ 12.996601603000045, 50.433666891000129 ], [ 12.952573283000078, 50.404159648000117 ], [ 12.873253957302797, 50.426960921983799 ], [ 12.817387736000029, 50.443020325000148 ], [ 12.737909383000044, 50.431548157000137 ], [ 12.691814006000101, 50.394651184000125 ], [ 12.571292339636015, 50.390741261052071 ], [ 12.510223022000076, 50.388760071000107 ], [ 12.475083048000045, 50.369433085000153 ], [ 12.466814819000092, 50.341889547000093 ], [ 12.398188517000051, 50.315172831000112 ] ] ], [ [ [ 13.148936394000145, 54.304754950000031 ], [ 13.177500847000118, 54.310207424000069 ], [ 13.115489129000082, 54.33808014500012 ], [ 13.148936394000145, 54.377264716000141 ], [ 13.223317905000044, 54.37250397300015 ], [ 13.266856316000144, 54.385891018000152 ], [ 13.23926842500012, 54.39362213700015 ], [ 13.239024285000085, 54.420070705000128 ], [ 13.211599155000044, 54.431097723000093 ], [ 13.156993035000085, 54.426825262000179 ], [ 13.181813998000024, 54.453029690000037 ], [ 13.273122592000107, 54.482123114000089 ], [ 13.233246290000125, 54.493068752000156 ], [ 13.232758009000122, 54.516262111000074 ], [ 13.185394727000102, 54.508286851000136 ], [ 13.143402540000125, 54.542914130000113 ], [ 13.259532097000147, 54.553778387000094 ], [ 13.297862175000063, 54.5196800800001 ], [ 13.301036004000139, 54.550360419000086 ], [ 13.36939537900011, 54.585150458000143 ], [ 13.342051629000139, 54.550360419000086 ], [ 13.363129102000073, 54.542914130000113 ], [ 13.348887566000144, 54.523667710000083 ], [ 13.383799675000091, 54.53188711100016 ], [ 13.389821811000104, 54.542914130000113 ], [ 13.363129102000073, 54.550360419000086 ], [ 13.376719597000118, 54.564642645000092 ], [ 13.420913662569824, 54.505750553013087 ], [ 13.43067467500012, 54.492743231000034 ], [ 13.507090691000144, 54.488267320000077 ], [ 13.520762566000087, 54.523667710000083 ], [ 13.499685092000078, 54.557196356000119 ], [ 13.520762566000087, 54.570786851000079 ], [ 13.441416863000143, 54.557196356000119 ], [ 13.436136080484189, 54.561210464358901 ], [ 13.369151238000086, 54.612127997000087 ], [ 13.273285352000073, 54.560939846000124 ], [ 13.253265821000099, 54.564642645000092 ], [ 13.256846550000148, 54.594916083000086 ], [ 13.293467644000089, 54.642279364000117 ], [ 13.224782748000081, 54.634955145000035 ], [ 13.253591342000107, 54.665025132000054 ], [ 13.390798373000081, 54.688177802 ], [ 13.44507897200009, 54.680080471000068 ], [ 13.390879754000139, 54.650539455000015 ], [ 13.385996941000087, 54.618638413999989 ], [ 13.424571160000141, 54.585150458000143 ], [ 13.442889676414515, 54.585815874200385 ], [ 13.595957879000082, 54.591376044000086 ], [ 13.670664910000085, 54.566229559000121 ], [ 13.677256707000083, 54.540472723000093 ], [ 13.575450066000116, 54.471869208000058 ], [ 13.609548373000052, 54.413804429 ], [ 13.69825280000012, 54.392075914000131 ], [ 13.766449415000125, 54.344916083000143 ], [ 13.73015384200005, 54.316839911000116 ], [ 13.723155144000145, 54.278387762000037 ], [ 13.690928582000112, 54.283514716000141 ], [ 13.711924675000148, 54.286566473000121 ], [ 13.711924675000148, 54.303941148000106 ], [ 13.651133660000113, 54.297186591000084 ], [ 13.711924675000148, 54.331854559000149 ], [ 13.616953972000118, 54.31761302300005 ], [ 13.690928582000112, 54.344916083000143 ], [ 13.664073113000114, 54.353257554000109 ], [ 13.62680097700013, 54.339097398 ], [ 13.599294467000107, 54.351752020000148 ], [ 13.499685092000078, 54.344916083000143 ], [ 13.40609785200013, 54.285223700000145 ], [ 13.359629754000082, 54.275458075000117 ], [ 13.355723504000082, 54.248724677 ], [ 13.363129102000073, 54.26300690300009 ], [ 13.417735222000118, 54.266058661000088 ], [ 13.423024936000104, 54.232733466000084 ], [ 13.407237175000148, 54.228216864000146 ], [ 13.348590487047757, 54.242255165797602 ], [ 13.31153405000012, 54.251125393000123 ], [ 13.335215691000116, 54.283514716000141 ], [ 13.314707879000082, 54.26300690300009 ], [ 13.267914259000094, 54.256496486000103 ], [ 13.210134311000076, 54.275824286000116 ], [ 13.20484459700009, 54.297186591000084 ], [ 13.149668816000059, 54.290269273 ], [ 13.148936394000145, 54.304754950000031 ] ] ] ] } },
{ "type": "Feature", "properties": { "name": "DE0 3" }, "geometry": { "type": "Polygon", "coordinates": [ [ [ 10.959026269696006, 47.428476965100685 ], [ 10.959826701000111, 47.432506409 ], [ 10.956764959010354, 47.434096579760279 ], [ 10.858437540000068, 47.485164693000101 ], [ 10.851616252000042, 47.493097026000058 ], [ 10.892233928000053, 47.514878643000159 ], [ 10.858644247000115, 47.53066579200005 ], [ 10.760769083000127, 47.51363840700013 ], [ 10.583725627000121, 47.56247263600001 ], [ 10.536906779000105, 47.529864808000056 ], [ 10.482543172000135, 47.532862040000154 ], [ 10.453501017000065, 47.546246236000101 ], [ 10.457118368000124, 47.579241638000056 ], [ 10.429213094000147, 47.577019552000067 ], [ 10.41422692900008, 47.573014628000166 ], [ 10.430970093000042, 47.54216379800009 ], [ 10.41960127800013, 47.493045350000116 ], [ 10.447609904000046, 47.47258148300007 ], [ 10.451950724000113, 47.438759257000086 ], [ 10.428282918000093, 47.396048686000157 ], [ 10.371645549000107, 47.367394104000098 ], [ 10.305913126000064, 47.302178447000173 ], [ 10.239353882000074, 47.277735494000027 ], [ 10.159875529000061, 47.27112091100004 ], [ 10.190778036000069, 47.298251038 ], [ 10.209278198000106, 47.372484233000179 ], [ 10.102032734011713, 47.361106392690672 ], [ 10.082877644000064, 47.359074199000034 ], [ 10.053215373000086, 47.404859518000151 ], [ 10.07595300300008, 47.416874288000045 ], [ 10.071818888000053, 47.439120993000088 ], [ 10.022622924000075, 47.487955221000149 ], [ 9.982625366000121, 47.481030579000063 ], [ 9.945935099000053, 47.540768534 ], [ 9.833487182000084, 47.534619039000049 ], [ 9.81312666900007, 47.541750387000079 ], [ 9.807959025000059, 47.576321920000069 ], [ 9.782120809000048, 47.588414205000149 ], [ 9.75266524200012, 47.582058004000103 ], [ 9.7039860430001, 47.53141510000016 ], [ 9.612622111000093, 47.521880799000158 ], [ 9.575418904967306, 47.528791278890601 ], [ 9.84429088444754, 47.923743303439934 ], [ 9.687808450706244, 47.993347400133224 ], [ 9.614766075242636, 48.151941707317995 ], [ 9.861122057749137, 48.542156864094046 ], [ 9.869760791496811, 48.548337492523729 ], [ 9.876320330124637, 48.579132033459764 ], [ 9.754263661282288, 48.951012255993653 ], [ 10.114597273211134, 49.372128864480175 ], [ 10.211737655923455, 49.373281830430209 ], [ 10.435733170200637, 49.671220993730046 ], [ 10.43092799360949, 50.149172583862963 ], [ 10.491281025483664, 50.411551847494884 ], [ 10.615286984873425, 50.460975718863047 ], [ 10.914950913169738, 50.961631040599194 ], [ 10.9150322848727, 50.961915052443253 ], [ 10.949009218261329, 50.97585325863389 ], [ 11.448549765880813, 50.809367923664418 ], [ 11.557575737197777, 50.835740289645429 ], [ 11.671321103344274, 50.731956132114973 ], [ 11.874031509503025, 50.725362724880888 ], [ 12.004934616942863, 50.47418869329838 ], [ 12.051231950058829, 50.446369554807717 ], [ 12.128622596881682, 50.31268959186059 ], [ 12.076140991000045, 50.315172831000112 ], [ 12.110970906000091, 50.276622213000152 ], [ 12.079551635000144, 50.242722473000057 ], [ 12.175049682000093, 50.182622783000014 ], [ 12.179183797000121, 50.117975566000055 ], [ 12.192450505869683, 50.108655445744169 ], [ 12.232513875000109, 50.080510152000059 ], [ 12.246879923000108, 50.044956767000102 ], [ 12.451311889000067, 49.980567932000113 ], [ 12.468158406000043, 49.970232646000014 ], [ 12.462680705000139, 49.931268616000025 ], [ 12.524072306000051, 49.904965312000073 ], [ 12.482524454000043, 49.827243958000153 ], [ 12.46247399900011, 49.831223043000037 ], [ 12.452655477000121, 49.779701640000141 ], [ 12.38361576300008, 49.742856344000032 ], [ 12.419582560000066, 49.700223287000043 ], [ 12.49637373900012, 49.669992575000109 ], [ 12.501954793000039, 49.61971140600015 ], [ 12.546603230000073, 49.595578512000102 ], [ 12.58288008700012, 49.522404683000119 ], [ 12.622980998000116, 49.509847310000012 ], [ 12.628425332964083, 49.48857610178915 ], [ 12.643548218000092, 49.429490457999989 ], [ 12.655593905544238, 49.424106180865401 ], [ 12.729331095000106, 49.391146546000144 ], [ 12.777906941000111, 49.33254547200012 ], [ 12.856661825000117, 49.322210185000031 ], [ 12.884670451000119, 49.339573467000051 ], [ 12.999805542000104, 49.294925029000026 ], [ 13.011277710000115, 49.267794902000148 ], [ 13.178502645000066, 49.118346660000142 ], [ 13.299528849000126, 49.093645325000026 ], [ 13.372392618000049, 49.038506572000145 ], [ 13.398540893000131, 48.977683411000115 ], [ 13.458898966000049, 48.945023906000145 ], [ 13.482256713000083, 48.937634176000032 ], [ 13.515949747000036, 48.970242005 ], [ 13.608657267000126, 48.946160787000153 ], [ 13.637389363000125, 48.893450826000119 ], [ 13.644129832127597, 48.891431478902156 ], [ 13.724670858000138, 48.867302552000027 ], [ 13.815724731000103, 48.766430156000027 ], [ 13.783581991000062, 48.715270488000115 ], [ 13.81686161200011, 48.695581767000149 ], [ 13.800945272000064, 48.675221253000032 ], [ 13.802392211000068, 48.611710918000185 ], [ 13.774280233000127, 48.569207052000039 ], [ 13.733869263000145, 48.559776103000061 ], [ 13.716505981000125, 48.521690572000026 ], [ 13.624366902000105, 48.565357158 ], [ 13.520703979000132, 48.584580791000022 ], [ 13.454558146000068, 48.573444519000091 ], [ 13.440088745000111, 48.560964661000085 ], [ 13.459209025000121, 48.516393738 ], [ 13.405568888000062, 48.37658315100002 ], [ 13.274207397000055, 48.307104187000121 ], [ 13.032775106000145, 48.263566793000095 ], [ 12.933039591000068, 48.209254863000027 ], [ 12.862552938000107, 48.196645813000103 ], [ 12.821140160770955, 48.168771828313744 ], [ 12.738942912000113, 48.113446757000091 ], [ 12.760233602000113, 48.064870911000114 ], [ 12.830616903000134, 48.015468242000068 ], [ 12.862036173000149, 47.962551575000091 ], [ 12.926260495797209, 47.927507015992965 ], [ 12.931075887000134, 47.924879456000056 ], [ 12.99122725400008, 47.847106426000138 ], [ 12.971821048120546, 47.82293963516436 ], [ 12.892008504000103, 47.723548076000057 ], [ 12.964045451000089, 47.705357971000026 ], [ 13.01975916554162, 47.712915433855272 ], [ 13.019855998000139, 47.712928569000084 ], [ 13.072049194000044, 47.65946929900015 ], [ 13.072049194000044, 47.622417298000087 ], [ 13.063447499653069, 47.612645036815785 ], [ 13.038252807000049, 47.58402170900014 ], [ 13.028124227000092, 47.541647034000121 ], [ 13.03732263100008, 47.493045350000116 ], [ 13.001872599000052, 47.466018576000081 ], [ 12.931592651000074, 47.473511658000021 ], [ 12.778940470000094, 47.554824524000125 ], [ 12.785865112000067, 47.602676901000123 ], [ 12.81315026900009, 47.611823629000114 ], [ 12.751655314000089, 47.64939239600001 ], [ 12.761990600000075, 47.66685902900015 ], [ 12.653056681000095, 47.675127259000092 ], [ 12.496580444000074, 47.628902690000146 ], [ 12.476124031523177, 47.639701393756845 ], [ 12.44469730600008, 47.65629119900008 ], [ 12.424130086000076, 47.691560365000086 ], [ 12.238715047000113, 47.678899639000051 ], [ 12.223315470000017, 47.69590118400005 ], [ 12.242229044000055, 47.732023011000152 ], [ 12.176599976000119, 47.705823059000139 ], [ 12.20512536600009, 47.672285055000046 ], [ 12.206779012000112, 47.645568339000178 ], [ 12.173602742000099, 47.605079855000085 ], [ 11.935891154000046, 47.610738424000104 ], [ 11.851968627000133, 47.599162903000078 ], [ 11.820342651000118, 47.575288391000086 ], [ 11.620458211000113, 47.589654440000075 ], [ 11.589142293000123, 47.570379131000053 ], [ 11.551211792000117, 47.513690084000061 ], [ 11.495200663919961, 47.510620122671348 ], [ 11.412615600000066, 47.506093648000089 ], [ 11.36548669400014, 47.46932586700008 ], [ 11.388637736000135, 47.462220357000049 ], [ 11.383883504000039, 47.444857076000133 ], [ 11.305645385000076, 47.435400290000175 ], [ 11.237019083000121, 47.393955790000021 ], [ 11.213041219000019, 47.395816142000015 ], [ 11.215211629000123, 47.422997945000091 ], [ 11.193817587000098, 47.428940735000126 ], [ 11.083746785000102, 47.3895116180001 ], [ 10.979463745000146, 47.390545146000179 ], [ 10.971885507041325, 47.396520295388989 ], [ 10.955279175000101, 47.409613750000162 ], [ 10.959026269696006, 47.428476965100685 ] ] ] } },
{ "type": "Feature", "properties": { "name": "DE0 4" }, "geometry": { "type": "Polygon", "coordinates": [ [ [ 8.595753259726301, 51.852714890995728 ], [ 8.39565883195875, 52.134438136151743 ], [ 8.334232820316815, 52.114580309107716 ], [ 8.071388468379123, 52.520289604705958 ], [ 8.065100293476707, 52.556501476867822 ], [ 8.039635349616077, 52.592499864077539 ], [ 7.758728366515447, 52.654410984020871 ], [ 7.687477598795863, 52.693257202678851 ], [ 7.672380873723257, 52.750520299241529 ], [ 7.549499414817473, 52.798071161968402 ], [ 7.371800011928926, 52.898934366275085 ], [ 7.174696744749461, 53.119294252795697 ], [ 7.171944214000121, 53.13771372500004 ], [ 7.185396676065896, 53.164826066508382 ], [ 7.195405314000112, 53.184997661000082 ], [ 7.194590691000116, 53.24502187700007 ], [ 7.233571811000104, 53.273627020000063 ], [ 7.22950280000012, 53.296576239000146 ], [ 7.254730665000096, 53.319525458000143 ], [ 7.366547071000127, 53.302801825000117 ], [ 7.302907748000052, 53.332749742 ], [ 7.038259311000104, 53.348578192000033 ], [ 7.023610873000081, 53.376410223000065 ], [ 7.023285352000073, 53.450506903000033 ], [ 7.051442905000044, 53.512600002000156 ], [ 7.119639519000145, 53.516302802 ], [ 7.141774936000047, 53.537176825000145 ], [ 7.086761915000068, 53.586859442000062 ], [ 7.226084832000112, 53.666489976000136 ], [ 7.305023634000065, 53.684800523000106 ], [ 7.458832227000073, 53.695135809000121 ], [ 7.503916863000114, 53.678656317000119 ], [ 7.574877427785804, 53.685514935001237 ], [ 7.951426629000082, 53.721909898000106 ], [ 8.031423373000052, 53.708075262000122 ], [ 8.02491295700014, 53.672552802000141 ], [ 8.052907748000081, 53.636297919000029 ], [ 8.084351341726252, 53.617133767930092 ], [ 8.127614780000101, 53.590765692000062 ], [ 8.119151238000143, 53.571926174000126 ], [ 8.167979363000143, 53.553208726000051 ], [ 8.155446811000047, 53.526027736000131 ], [ 8.058767123000109, 53.502020575000088 ], [ 8.086192254000082, 53.456122137000122 ], [ 8.152354363000057, 53.449774481000091 ], [ 8.20533287900011, 53.410711981000034 ], [ 8.243867372644774, 53.411841939803061 ], [ 8.259450717000078, 53.412298895000063 ], [ 8.315114780000101, 53.47492096600017 ], [ 8.320485873000052, 53.509222723000121 ], [ 8.312689846894278, 53.514642713208552 ], [ 8.291514519000145, 53.529364325000174 ], [ 8.231211785000113, 53.525213934000035 ], [ 8.248871290000125, 53.590277411000088 ], [ 8.270681186000076, 53.612860419000143 ], [ 8.329356316000116, 53.618109442000119 ], [ 8.365136818471077, 53.592983245130213 ], [ 8.387705925000091, 53.57713450700011 ], [ 8.55209394600007, 53.543605861000074 ], [ 8.490000847000118, 53.486395575000117 ], [ 8.485036655000073, 53.40119049700003 ], [ 8.504405144000089, 53.358058986000017 ], [ 8.497569207000083, 53.474758205000015 ], [ 8.556651238000114, 53.51821523600016 ], [ 8.565765821000099, 53.546698309000149 ], [ 8.508311394000089, 53.625148830000015 ], [ 8.486094597000118, 53.700425523 ], [ 8.573252800000148, 53.857652085 ], [ 8.601212348240056, 53.870039959553694 ], [ 8.617468854611539, 53.877242635358158 ], [ 8.651866082000083, 53.892482815000122 ], [ 8.782481316000144, 53.842474677000112 ], [ 8.860687696000127, 53.831000067000062 ], [ 8.99796102464312, 53.839400161370705 ], [ 9.016286655000044, 53.840521552000055 ], [ 9.114512566000087, 53.865139065000065 ], [ 9.274668816000144, 53.865139065000065 ], [ 9.309508540651574, 53.831738998241384 ], [ 9.331454141162391, 53.810700240631952 ], [ 9.391723283133649, 53.752921558812027 ], [ 9.402679884000122, 53.742417710000083 ], [ 9.484711134000122, 53.690090236000074 ], [ 9.498383009000065, 53.659857489000089 ], [ 9.567067905000073, 53.599595445000105 ], [ 9.629836069232258, 53.57877786278582 ], [ 9.696625196000099, 53.556626695000077 ], [ 9.777105913517547, 53.548888164092389 ], [ 9.832041863000143, 53.543605861000074 ], [ 9.797977325392765, 53.561414845700511 ], [ 9.782074415000096, 53.56972890800013 ], [ 9.692393425000148, 53.575913804000024 ], [ 9.624905242484139, 53.598595087250587 ], [ 9.583669467000021, 53.612453518000152 ], [ 9.550791863000143, 53.634588934000121 ], [ 9.53223717500012, 53.71116771 ], [ 9.435801629000139, 53.748683986000017 ], [ 9.428439675214712, 53.763607064699031 ], [ 9.395192905000044, 53.831000067000062 ], [ 9.34424366196477, 53.851237903236985 ], [ 9.298604490336004, 53.869366496055768 ], [ 9.257823113000143, 53.885565497000059 ], [ 9.091875784225053, 53.901271226201878 ], [ 9.029958530000073, 53.907131252000156 ], [ 8.984629754000139, 53.897040106000176 ], [ 8.916026238000143, 53.93740469000015 ], [ 8.83334394600007, 54.036444403000033 ], [ 8.890635613000114, 54.047796942 ], [ 8.997243686000047, 54.030218817000062 ], [ 9.018321160000141, 54.097886460000026 ], [ 8.974457227000102, 54.128078518000038 ], [ 8.977305535000141, 54.145697333000143 ], [ 8.95289147200009, 54.150091864000117 ], [ 8.860687696000127, 54.125189520000092 ], [ 8.812836134000122, 54.180487372000087 ], [ 8.846690300000091, 54.233547268 ], [ 8.839610222000118, 54.255560614000117 ], [ 8.922048373000052, 54.274237372000087 ], [ 8.963145379000139, 54.31761302300005 ], [ 8.88111412900011, 54.290269273 ], [ 8.887950066000116, 54.303941148000106 ], [ 8.738942905000101, 54.293890692000147 ], [ 8.678477410000113, 54.269191799000154 ], [ 8.602712436000047, 54.312079169000029 ], [ 8.59986412900011, 54.33808014500012 ], [ 8.614024285000113, 54.348374742000132 ], [ 8.695567254000139, 54.358587958000086 ], [ 8.650645379000139, 54.377997137000179 ], [ 8.634776238000114, 54.365423895000092 ], [ 8.62916100400011, 54.387681382000139 ], [ 8.648448113000143, 54.406398830000015 ], [ 8.88607832100007, 54.417792059000149 ], [ 8.957180011616098, 54.446613114525675 ], [ 9.004730665000096, 54.465887762000037 ], [ 9.01156660200013, 54.506333726 ], [ 8.878754102000073, 54.606512762000094 ], [ 8.825856967000107, 54.598130601000136 ], [ 8.819021030000073, 54.605617580000015 ], [ 8.853282097000147, 54.619289455000128 ], [ 8.818369988000143, 54.673651434000149 ], [ 8.688731316000144, 54.735296942 ], [ 8.69434655000012, 54.760239976000108 ], [ 8.648448113000143, 54.817857163999989 ], [ 8.660816132543687, 54.896303911092375 ], [ 8.904138224000093, 54.8979422 ], [ 9.194766480000055, 54.850399882 ], [ 9.244065796000143, 54.801772360000157 ], [ 9.345195571126725, 54.814413581621913 ], [ 9.385039103000054, 54.819394023000072 ], [ 9.451426629000139, 54.810370184000121 ], [ 9.579925977000102, 54.866278387000179 ], [ 9.583181186000047, 54.830267645000035 ], [ 9.734629754000082, 54.807318427000112 ], [ 9.801768425000148, 54.783392645000063 ], [ 9.823741082000083, 54.756740627000127 ], [ 9.882406481378371, 54.76717373533053 ], [ 9.895355665000096, 54.769476630000085 ], [ 9.894021727808234, 54.776577066432679 ], [ 9.891449415000096, 54.790269273000078 ], [ 9.907205964326433, 54.787250601605464 ], [ 9.94752037900011, 54.779527085000055 ], [ 10.018239780000073, 54.701239325000174 ], [ 9.970469597000118, 54.701239325000174 ], [ 9.92945397200009, 54.673895575000088 ], [ 10.013918335499632, 54.668440193062736 ], [ 10.039073113000143, 54.666815497000059 ], [ 10.02686608200014, 54.559963283000073 ], [ 9.995251800695019, 54.532211570350796 ], [ 9.965586785000141, 54.506170966000028 ], [ 9.840098504000082, 54.475287177000055 ], [ 9.883311394000089, 54.462103583000115 ], [ 9.987274480286597, 54.473992978440378 ], [ 10.143402540000096, 54.491848049000126 ], [ 10.203868035000085, 54.461004950000174 ], [ 10.183929884000122, 54.449367580000157 ], [ 10.191254102000102, 54.396714585000055 ], [ 10.141774936000076, 54.37225983300003 ], [ 10.155528191000087, 54.343410549000097 ], [ 10.141774936000076, 54.324408270000092 ], [ 10.180349155000044, 54.341131903000118 ], [ 10.224375847000147, 54.413804429 ], [ 10.318369988000086, 54.443304755000057 ], [ 10.601084832000083, 54.365423895000092 ], [ 10.627869145807818, 54.3506374861051 ], [ 10.690196160000141, 54.316229559000178 ], [ 10.731293165000125, 54.310207424000069 ], [ 10.777110222000118, 54.315130927000112 ], [ 10.935313347000118, 54.379543361000017 ], [ 11.018809441000087, 54.385891018000152 ], [ 10.975840691000144, 54.378404038999989 ], [ 11.033946160000085, 54.367621161000088 ], [ 11.104177280000044, 54.392889716000028 ], [ 11.135508660000085, 54.385891018000152 ], [ 11.08773847700013, 54.351752020000148 ], [ 11.066579623000052, 54.358587958000086 ], [ 11.094493035000085, 54.283514716000141 ], [ 11.090179884000094, 54.20799388200011 ], [ 11.066579623000052, 54.183905341000084 ], [ 10.892832879000139, 54.102525132000139 ], [ 10.805430535000085, 54.094875393 ], [ 10.752614780000101, 54.050116278000147 ], [ 10.799652540000125, 54.000555731000034 ], [ 10.875498894000145, 53.995428778000118 ], [ 10.887380405000101, 53.963934637000094 ], [ 10.922618035000141, 53.961371161 ], [ 11.053477410000085, 54.008490302 ], [ 11.175059441000144, 54.018011786 ], [ 11.204356316000144, 53.989243882000054 ], [ 11.245371941000059, 53.97842031500015 ], [ 11.242930535000141, 53.945217190000122 ], [ 11.293711785000085, 53.94086334800015 ], [ 11.295096903535766, 53.941565661650401 ], [ 11.035820494261753, 53.549379011145128 ], [ 10.973017333772107, 53.405165380966494 ], [ 10.987760958613983, 53.289757958380861 ], [ 11.065871599398889, 53.022263120459627 ], [ 11.086806323769483, 52.982079371740518 ], [ 11.110332048033364, 52.969923842031974 ], [ 11.235442184590223, 52.675526076545161 ], [ 11.276726688978421, 52.616011783020141 ], [ 11.324658934276686, 52.17118403123493 ], [ 11.312004739240486, 52.041680578535065 ], [ 11.262490779400409, 51.933463313094187 ], [ 11.145478439483753, 51.84413109530314 ], [ 10.758712797838243, 51.833212190160516 ], [ 10.423826610650138, 51.598750587927512 ], [ 10.424213841079419, 51.539072941756523 ], [ 10.9150322848727, 50.961915052443253 ], [ 10.914950913169738, 50.961631040599194 ], [ 10.615286984873425, 50.460975718863047 ], [ 10.491281025483664, 50.411551847494884 ], [ 10.125213422732589, 50.575055167407761 ], [ 10.021498460435099, 50.762166608215047 ], [ 9.987920422147228, 51.07330220363491 ], [ 9.87714898058282, 51.111583482513282 ], [ 9.463364232321791, 50.996280954712972 ], [ 9.299265488592035, 50.645933694021892 ], [ 9.18230545055728, 50.546162609674944 ], [ 9.061784340657747, 50.724603475109191 ], [ 8.716186018229982, 50.981798800456595 ], [ 8.694075767374034, 51.024499676185819 ], [ 8.697990808792687, 51.058548999854793 ], [ 8.374911903101719, 51.492806373859104 ], [ 8.424873613840965, 51.546477 ], [ 8.445631494580457, 51.64555046926791 ], [ 8.595753259726301, 51.852714890995728 ] ] ] } }
]
}
